IRIDIUM 113             
1 42803U 17039A   26132.93749093  .00000064  00000+0  15822-4 0  9996
2 42803  86.3972 336.9200 0002232  92.8044 267.3407 14.34217557466131
NORSAT 2                
1 42828U 17042D   26133.10652872  .00007713  00000+0  34836-3 0  9998
2 42828  97.4022 307.1283 0010169 167.6635 192.4852 15.21199958482404
TECHNOSAT               
1 42829U 17042E   26132.94081345  .00001652  00000+0  12115-3 0  9993
2 42829  97.4234 291.9547 0017066 210.4496 149.5741 15.04730128481408
FLYING LAPTOP           
1 42831U 17042G   26133.18731183  .00002127  00000+0  17104-3 0  9996
2 42831  97.4530 290.1062 0017695 241.5975 118.3466 15.00908935481203
WNISAT 1R               
1 42835U 17042L   26133.17562587  .00001719  00000+0  13694-3 0  9995
2 42835  97.4793 290.5601 0010314 284.5259  75.4822 15.01595633481256
LEMUR-2-GREENBERG       
1 42837U 17042N   26132.98316994  .00011296  00000+0  38835-3 0  9999
2 42837  97.3811 313.8054 0010283 126.9828 233.2356 15.30206822483007
LEMUR-2-FURIAUS         
1 42840U 17042R   26132.95121780  .00011788  00000+0  41989-3 0  9997
2 42840  97.3764 311.8104 0007768 179.2770 180.8483 15.29060393482829
CORVUS BC2              
1 42846U 17042X   26133.18336502  .00002087  00000+0  14682-3 0  9991
2 42846  97.4037 295.9077 0011942 226.6476 133.3757 15.06067124481795
CORVUS BC1              
1 42847U 17042Y   26132.98265326  .00002200  00000+0  15389-3 0  9996
2 42847  97.4070 296.5060 0011310 201.2358 158.8402 15.06238717481796
VRSS-2                  
1 42954U 17060A   26133.19306218  .00000313  00000+0  46665-4 0  9990
2 42954  97.6546 172.4924 0016173 210.0304 149.9983 14.81134072463276
MOHAMMED VI-A           
1 43005U 17070A   26133.18837038  .00000251  00000+0  42695-4 0  9997
2 43005  97.9565 205.9985 0001415 105.5660 254.5707 14.77091382458815
FENGYUN 3D              
1 43010U 17072A   26133.19176353  .00000453  00000+0  23580-3 0  9997
2 43010  99.0106 106.9861 0002155 121.2132 238.9255 14.19733236440024
NOAA 20 (JPSS-1)        
1 43013U 17073A   26133.11051233  .00000018  00000+0  29552-4 0  9995
2 43013  98.7760  72.8878 0001729  50.4562 309.6767 14.19550996439497
MAKERSAT 0              
1 43016U 17073D   26132.17512071  .00015764  00000+0  44167-3 0  9997
2 43016  97.4681  14.4471 0111834  41.9670 319.0072 15.30547279460956
RADFXSAT (FOX-1B)       
1 43017U 17073E   26132.87740102  .00005964  00000+0  26261-3 0  9999
2 43017  97.4761   0.8269 0154160  90.5575 271.3322 15.12053585460054
JILIN-1 04              
1 43022U 17074A   26133.17295449  .00007407  00000+0  17858-3 0  9995
2 43022  97.4820 241.8854 0002985 338.3388  21.7731 15.41537116468873
JILIN-1 05              
1 43023U 17074B   26133.14775705  .00005512  00000+0  17365-3 0  9999
2 43023  97.4829 238.8508 0005078   9.2739 350.8596 15.33322223468636
JILIN-1 06              
1 43024U 17074C   26133.18237436  .00003453  00000+0  10981-3 0  9997
2 43024  97.4758 235.9346 0007067  16.6659 343.4814 15.33291748468479
IRIDIUM 116             
1 43072U 17083C   26132.98189487  .00000225  00000+0  73238-4 0  9998
2 43072  86.3963 336.7268 0002134  79.4084 280.7352 14.34218679439121
IRIDIUM 130             
1 43073U 17083D   26132.95017617  .00000004  00000+0 -56809-5 0  9993
2 43073  86.3968 337.0116 0002169  81.7971 278.3470 14.34217451439066
LKW-2                   
1 43080U 17084A   26133.21114994  .00002876  00000+0  11499-3 0  9990
2 43080  97.1225 174.6492 0002761  51.4205 308.7281 15.25862560466352
SUPERVIEW-1 03          
1 43099U 18002A   26133.17741517  .00010762  00000+0  27817-3 0  9997
2 43099  97.3131 218.1006 0046466 307.8536  51.8508 15.38162050462984
CARTOSAT-2F             
1 43111U 18004A   26132.50960610  .00005205  00000+0  25051-3 0  9991
2 43111  97.4414 192.4915 0001897  57.0403 303.1014 15.19202475461915
LKW-3                   
1 43146U 18006A   26133.17517078  .00003947  00000+0  12049-3 0  9995
2 43146  97.6576 292.4096 0004155  78.0382 282.1325 15.34545456463340
ASNARO-2                
1 43152U 18007A   26133.15333385  .00006182  00000+0  27045-3 0  9994
2 43152  97.3987 140.6250 0001807  88.7157 271.4287 15.22414339462085
JILIN-1 07              
1 43159U 18008E   26133.13811253  .00006066  00000+0  18580-3 0  9990
2 43159  97.1796 154.0141 0008629 170.6911 189.4493 15.34127770459620
JILIN-1 08              
1 43160U 18008F   26133.18232977  .00005121  00000+0  16175-3 0  9996
2 43160  97.1824 153.4073 0005970 180.4350 179.6889 15.33241884459580
LEMUR-2-KADI            
1 43184U 18014E   26133.06133375  .00260633  00000+0  10907-2 0  9995
2 43184  97.4483  62.2712 0005368 105.0614 255.1250 15.84921102455508
