OBJECT_NAME,OBJECT_ID,EPOCH,MEAN_MOTION,ECCENTRICITY,INCLINATION,RA_OF_ASC_NODE,ARG_OF_PERICENTER,MEAN_ANOMALY,EPHEMERIS_TYPE,CLASSIFICATION_TYPE,NORAD_CAT_ID,ELEMENT_SET_NO,REV_AT_EPOCH,BSTAR,MEAN_MOTION_DOT,MEAN_MOTION_DDOT
IRIDIUM 113,2017-039A,2026-05-12T22:29:59.216352,14.34217557,.0002232,86.3972,336.9200,92.8044,267.3407,0,U,42803,999,46613,.15822E-4,.64E-6,0
NORSAT 2,2017-042D,2026-05-13T02:33:24.081408,15.21199958,.0010169,97.4022,307.1283,167.6635,192.4852,0,U,42828,999,48240,.34836E-3,.7713E-4,0
TECHNOSAT,2017-042E,2026-05-12T22:34:46.282080,15.04730128,.0017066,97.4234,291.9547,210.4496,149.5741,0,U,42829,999,48140,.12115E-3,.1652E-4,0
FLYING LAPTOP,2017-042G,2026-05-13T04:29:43.742112,15.00908935,.0017695,97.4530,290.1062,241.5975,118.3466,0,U,42831,999,48120,.17104E-3,.2127E-4,0
WNISAT 1R,2017-042L,2026-05-13T04:12:54.075168,15.01595633,.0010314,97.4793,290.5601,284.5259,75.4822,0,U,42835,999,48125,.13694E-3,.1719E-4,0
LEMUR-2-GREENBERG,2017-042N,2026-05-12T23:35:45.882816,15.30206822,.0010283,97.3811,313.8054,126.9828,233.2356,0,U,42837,999,48300,.38835E-3,.11296E-3,0
LEMUR-2-FURIAUS,2017-042R,2026-05-12T22:49:45.217920,15.29060393,.0007768,97.3764,311.8104,179.2770,180.8483,0,U,42840,999,48282,.41989E-3,.11788E-3,0
CORVUS BC2,2017-042X,2026-05-13T04:24:02.737728,15.06067124,.0011942,97.4037,295.9077,226.6476,133.3757,0,U,42846,999,48179,.14682E-3,.2087E-4,0
CORVUS BC1,2017-042Y,2026-05-12T23:35:01.241664,15.06238717,.001131,97.4070,296.5060,201.2358,158.8402,0,U,42847,999,48179,.15389E-3,.22E-4,0
VRSS-2,2017-060A,2026-05-13T04:38:00.572352,14.81134072,.0016173,97.6546,172.4924,210.0304,149.9983,0,U,42954,999,46327,.46665E-4,.313E-5,0
MOHAMMED VI-A,2017-070A,2026-05-13T04:31:15.200832,14.77091382,.0001415,97.9565,205.9985,105.5660,254.5707,0,U,43005,999,45881,.42695E-4,.251E-5,0
FENGYUN 3D,2017-072A,2026-05-13T04:36:08.368992,14.19733236,.0002155,99.0106,106.9861,121.2132,238.9255,0,U,43010,999,44002,.2358E-3,.453E-5,0
NOAA 20 (JPSS-1),2017-073A,2026-05-13T02:39:08.265312,14.19550996,.0001729,98.7760,72.8878,50.4562,309.6767,0,U,43013,999,43949,.29552E-4,.18E-6,0
MAKERSAT 0,2017-073D,2026-05-12T04:12:10.429344,15.30547279,.01118347,97.4681,14.4471,41.9670,319.0072,0,U,43016,999,46095,.44166751E-3,.15764E-3,0
RADFXSAT (FOX-1B),2017-073E,2026-05-12T21:03:27.448128,15.12053585,.015416,97.4761,0.8269,90.5575,271.3322,0,U,43017,999,46005,.26261337E-3,.5964E-4,0
JILIN-1 04,2017-074A,2026-05-13T04:09:03.267936,15.41537116,.0002985,97.4820,241.8854,338.3388,21.7731,0,U,43022,999,46887,.17858E-3,.7407E-4,0
JILIN-1 05,2017-074B,2026-05-13T03:32:46.209120,15.33322223,.0005078,97.4829,238.8508,9.2739,350.8596,0,U,43023,999,46863,.17365E-3,.5512E-4,0
JILIN-1 06,2017-074C,2026-05-13T04:22:37.144704,15.33291748,.0007067,97.4758,235.9346,16.6659,343.4814,0,U,43024,999,46847,.10981E-3,.3453E-4,0
IRIDIUM 116,2017-083C,2026-05-12T23:33:55.716768,14.34218679,.0002134,86.3963,336.7268,79.4084,280.7352,0,U,43072,999,43912,.73238E-4,.225E-5,0
IRIDIUM 130,2017-083D,2026-05-12T22:48:15.221088,14.34217451,.0002169,86.3968,337.0116,81.7971,278.3470,0,U,43073,999,43906,-.56809E-5,.4E-7,0
LKW-2,2017-084A,2026-05-13T05:04:03.354816,15.25862560,.0002761,97.1225,174.6492,51.4205,308.7281,0,U,43080,999,46635,.11499E-3,.2876E-4,0
SUPERVIEW-1 03,2018-002A,2026-05-13T04:15:28.670688,15.38162050,.0046466,97.3131,218.1006,307.8536,51.8508,0,U,43099,999,46298,.27817E-3,.10762E-3,0
CARTOSAT-2F,2018-004A,2026-05-12T12:13:49.967040,15.19202475,.0001897,97.4414,192.4915,57.0403,303.1014,0,U,43111,999,46191,.25051E-3,.5205E-4,0
LKW-3,2018-006A,2026-05-13T04:12:14.755392,15.34545456,.0004155,97.6576,292.4096,78.0382,282.1325,0,U,43146,999,46334,.12049E-3,.3947E-4,0
ASNARO-2,2018-007A,2026-05-13T03:40:48.044640,15.22414339,.0001807,97.3987,140.6250,88.7157,271.4287,0,U,43152,999,46208,.27045E-3,.6182E-4,0
JILIN-1 07,2018-008E,2026-05-13T03:18:52.922592,15.34127770,.0008629,97.1796,154.0141,170.6911,189.4493,0,U,43159,999,45962,.1858E-3,.6066E-4,0
JILIN-1 08,2018-008F,2026-05-13T04:22:33.292128,15.33241884,.000597,97.1824,153.4073,180.4350,179.6889,0,U,43160,999,45958,.16175E-3,.5121E-4,0
LEMUR-2-KADI,2018-014E,2026-05-13T01:28:19.236000,15.84921102,.0005368,97.4483,62.2712,105.0614,255.1250,0,U,43184,999,45550,.10907E-2,.260633E-2,0
